SILU-1 (SILKROAD 1)     
1 42903U 17021F   18250.86189840  .00029690  00000-0  19027-3 0  9997
2 42903  42.7755 186.0466 0012936 171.2327 287.5195 15.75563874 62955
MIRATA                  
1 43015U 17073C   18250.73963551  .00001585  00000-0  12983-3 0  9991
2 43015  97.7046 178.2978 0257974   3.0913 357.1819 14.78314374 43339
MAKERSAT 0              
1 43016U 17073D   18250.58961821  .00001092  00000-0  90775-4 0  9992
2 43016  97.7074 178.2997 0259366   3.6565 356.6463 14.78270605 43313
ASTERIA                 
1 43020U 98067NH  18250.45519844  .00011367  00000-0  13837-3 0  9998
2 43020  51.6423 320.5646 0002621 105.6187 254.5096 15.61049417 45331
DELLINGR (RBLE)         
1 43021U 98067NJ  18250.80809960  .00005304  00000-0  74464-4 0  9997
2 43021  51.6407 321.3805 0002648 101.5115 258.6175 15.58545124 45352
OSIRIS-3U               
1 43027U 98067NL  18250.76213557  .00033115  00000-0  28401-3 0  9999
2 43027  51.6372 311.2735 0003231  62.1310 298.0014 15.69070120 45369
AEROCUBE 7B             
1 43042U 17071F   18250.51779017  .00002879  00000-0  82666-4 0  9990
2 43042  51.6403   0.2892 0004812 199.0216 161.0589 15.39324516 42283
AEROCUBE 7C             
1 43043U 17071G   18250.58271730  .00003055  00000-0  87092-4 0  9992
2 43043  51.6406 359.9790 0004914 201.0797 158.9986 15.39327286 42260
CHEFSAT                 
1 43044U 17071H   18250.60105777  .00004484  00000-0  11843-3 0  9990
2 43044  51.6409 358.6373 0004870 200.9547 159.1239 15.40530853 42283
ASGARDIA 1              
1 43049U 17071N   18250.88126887  .00002117  00000-0  63207-4 0  9993
2 43049  51.6407 358.2321 0002254 218.1494 141.9332 15.39446846 42303
ISARA                   
1 43050U 17071P   18250.87217303  .00003579  00000-0  97188-4 0  9996
2 43050  51.6403 357.4376 0002174 214.8779 145.2064 15.40310168 42311
FAUNA                   
1 43052U 17071R   18250.60232659  .00002543  00000-0  73519-4 0  9992
2 43052  51.6410 359.3801 0002227 211.7439 148.3412 15.39605299 42268
CORVUS BC3              
1 43118U 18004H   18250.24064048  .00000611  00000-0  29566-4 0  9994
2 43118  97.5259 312.9647 0011149 160.0052 200.1623 15.22373326 36195
MICROMAS-2A             
1 43131U 18004W   18250.36429989  .00001423  00000-0  63393-4 0  9999
2 43131  97.5271 313.2825 0010269 161.6499 198.5110 15.23067531 36224
GOMX4-B                 
1 43196U 18015E   18250.49733676  .00000319  00000-0  16187-4 0  9999
2 43196  97.3556  17.7883 0017718 225.8479 134.1283 15.23732203 33067
GOMX4-A                 
1 43197U 18015F   18250.90881696  .00000450  00000-0  21612-4 0  9997
2 43197  97.3568  18.1959 0018077 224.0920 252.3991 15.23739102 33133
1KUNS-PF                
1 43466U 98067NP  18250.42250553  .00010281  00000-0  14473-3 0  9999
2 43466  51.6403 327.0458 0001026  41.8419 318.2651 15.57282494 18506
UBAKUSAT                
1 43467U 98067NQ  18250.82193772  .00007002  00000-0  10258-3 0  9997
2 43467  51.6407 325.2169 0003066  72.6240 287.5087 15.56792014 18571
BATSU-CS1 (IRAZU)       
1 43468U 98067NR  18250.46987884  .00011489  00000-0  15840-3 0  9999
2 43468  51.6406 326.6124 0001015  29.2108 330.8940 15.57710778118502
CUBERRT                 
1 43546U 98067NU  18250.79973893  .00003134  00000-0  52241-4 0  9992
2 43546  51.6406 326.5586 0005906 139.8119 220.3310 15.55381593  8681
TEMPEST-D               
1 43547U 98067NV  18250.48345812  .00002523  00000-0  43926-4 0  9994
2 43547  51.6408 328.1960 0006268 140.2624 219.8827 15.55064994  8316
HALOSAT                 
1 43549U 98067NX  18250.54785640  .00008996  00000-0  13724-3 0  9992
2 43549  51.6404 327.8765 0005943 148.2622 211.8728 15.55256426  8335
ENDUROSAT ONE           
1 43551U 98067NZ  18250.47315099  .00008488  00000-0  12806-3 0  9990
2 43551  51.6403 328.1275 0006178 157.0495 203.0774 15.55651252  8738
EQUISAT                 
1 43552U 98067PA  18250.47432608  .00007535  00000-0  11489-3 0  9995
2 43552  51.6407 328.1362 0006469 157.4777 202.6499 15.55550766  8692
AEROCUBE 12A            
1 43556U 18046C   18250.58887004  .00001914  00000-0  82350-4 0  9995
2 43556  51.6437 338.4922 0008996 134.0344 226.1378 15.27775071  8114
AEROCUBE 12B            
1 43557U 18046D   18250.85057944  .00001613  00000-0  71473-4 0  9998
2 43557  51.6437 337.2392 0008983 134.9272 225.2438 15.27761764  8108
UITMSAT-1               
1 43589U 98067PD  18250.43626987  .00008276  00000-0  12770-3 0  9993
2 43589  51.6405 328.6294 0005733 166.6673 193.4470 15.55071353  4422
MAYA-1                  
1 43590U 98067PE  18250.43576369  .00008355  00000-0  12871-3 0  9993
2 43590  51.6406 328.6264 0005827 167.6922 192.4212 15.55100287  4358
BHUTAN-1                
1 43591U 98067PF  18250.43509991  .00008318  00000-0  12799-3 0  9999
2 43591  51.6406 328.6218 0005933 168.9364 191.1759 15.55137707  4359
SIRIUSSAT 1             
1 43595U 98067PG  18250.44369935  .00007471  00000-0  11747-3 0  9997
2 43595  51.6406 328.6751 0003842 114.8606 245.2784 15.54721189  3531
SIRIUSSAT 2             
1 43596U 98067PH  18250.44565972  .00007315  00000-0  11571-3 0  9999
2 43596  51.6415 328.6909 0004462 119.1464 240.9974 15.54586816  3535
